{
  "norad_id": 59488,
  "name": "STARLINK-31754",
  "history": [
    {
      "epoch": "2026-03-28T18:04:01.317792Z",
      "apogee_km": 484.0606267586436,
      "perigee_km": 482.0197009994763,
      "latitude_deg": 2.5405678812736356e-05,
      "longitude_deg": 142.47941375545918,
      "height_km": 482.7418067228091,
      "semi_major_axis_km": 6861.17716387906,
      "eccentricity": 0.00014873,
      "inclination_deg": 43.001,
      "raan_deg": 239.6536,
      "arg_perigee_deg": 274.2287,
      "mean_anomaly_deg": 85.8395,
      "mean_motion_rev_day": 15.27582983
    }
  ]
}