{"fetched_at":"2026-03-29T16:36:15Z","count":15609,"tles":[{"name":"STARLINK-31754","line1":"1 59488U 24071E   26087.75279303  .00003627  00000+0  14125-3 0  9990","line2":"2 59488  43.0010 239.6536 0001487 274.2287  85.8395 15.27582983111034","category":"Starlink"}]}